NORAD_CAT_ID,OBJECT_NAME,OBJECT_TYPE,EPOCH,MEAN_MOTION,ECCENTRICITY,INCLINATION,RA_OF_ASC_NODE,ARG_OF_PERICENTER,MEAN_ANOMALY,BSTAR,MEAN_MOTION_DOT,MEAN_MOTION_DDOT,TLE_LINE0,TLE_LINE1,TLE_LINE2,SEMIMAJOR_AXIS,PERIOD,APOGEE,PERIGEE,DECAYED
55281.0,STARLINK-5298,PAYLOAD,2023-12-26 22:45:18,14.98342024,0.0002526,70.0001,270.9558,267.8944,92.1926,0.00015616,1.771e-05,0.0,0 STARLINK-5298,1 55281U 23010N   23360.94813295  .00001771  00000-0  15616-3 0  9990,2 55281  70.0001 270.9558 0002526 267.8944  92.1926 14.98342024 52386,6950.156,96.106,573.776,570.265,0.0
55281.0,STARLINK-5298,PAYLOAD,2023-12-27 03:33:41,14.98357824,0.0002969,69.9991,270.4497,271.0778,89.004,0.00028603,3.324e-05,0.0,0 STARLINK-5298,1 55281U 23010N   23361.14839687  .00003324  00000-0  28603-3 0  9992,2 55281  69.9991 270.4497 0002969 271.0778  89.0040 14.98357824 52118,6950.107,96.105,574.035,569.908,0.0
55281.0,STARLINK-5298,PAYLOAD,2023-12-27 19:35:04,14.98320429,0.0002925,70.0001,268.7685,261.1071,98.9757,-2.0769e-05,-3.41e-06,0.0,0 STARLINK-5298,1 55281U 23010N   23361.81602706 -.00000341  00000-0 -20769-4 0  9990,2 55281  70.0001 268.7685 0002925 261.1071  98.9757 14.98320429 52216,6950.222,96.108,574.12,570.055,0.0
55281.0,STARLINK-5298,PAYLOAD,2023-12-27 21:11:12,14.98320062,0.0003046,69.9995,268.6005,260.7415,99.34,-4.9152e-05,-6.79e-06,0.0,0 STARLINK-5298,1 55281U 23010N   23361.88278801 -.00000679  00000-0 -49152-4 0  9993,2 55281  69.9995 268.6005 0003046 260.7415  99.3400 14.98320062 52529,6950.224,96.108,574.206,569.972,0.0
55281.0,STARLINK-5298,PAYLOAD,2023-12-28 03:35:45,14.98320385,0.0003054,69.9987,267.9251,265.1241,94.9569,-5.5391e-05,-7.54e-06,0.0,0 STARLINK-5298,1 55281U 23010N   23362.14982908 -.00000754  00000-0 -55391-4 0  9999,2 55281  69.9987 267.9251 0003054 265.1241  94.9569 14.98320385 52569,6950.223,96.108,574.21,569.965,0.0
55281.0,STARLINK-5298,PAYLOAD,2023-12-28 19:37:05,14.9833811,0.0003104,69.9986,266.2409,268.3397,91.7406,-0.00019543,-2.425e-05,0.0,0 STARLINK-5298,1 55281U 23010N   23362.81742297 -.00002425  00000-0 -19543-3 0  9993,2 55281  69.9986 266.2409 0003104 268.3397  91.7406 14.98338110 52366,6950.168,96.106,574.19,569.875,0.0
55281.0,STARLINK-5298,PAYLOAD,2023-12-28 21:13:13,14.98338625,0.0003051,69.9987,266.0726,268.052,92.0289,-0.00018028,-2.244e-05,0.0,0 STARLINK-5298,1 55281U 23010N   23362.88418181 -.00002244  00000-0 -18028-3 0  9998,2 55281  69.9987 266.0726 0003051 268.0520  92.0289 14.98338625 52671,6950.166,96.106,574.152,569.911,0.0
55281.0,STARLINK-5298,PAYLOAD,2023-12-29 03:37:45,14.98343826,0.0003034,69.9986,265.3997,266.9146,93.1666,-0.00013477,-1.701e-05,0.0,0 STARLINK-5298,1 55281U 23010N   23363.15121595 -.00001701  00000-0 -13477-3 0  9999,2 55281  69.9986 265.3997 0003034 266.9146  93.1666 14.98343826 52416,6950.15,96.106,574.124,569.906,0.0
55281.0,STARLINK-5298,PAYLOAD,2023-12-29 19:39:06,14.98322555,0.0002897,69.9989,263.7163,264.491,95.5918,0.00018618,2.129e-05,0.0,0 STARLINK-5298,1 55281U 23010N   23363.81882281  .00002129  00000-0  18618-3 0  9993,2 55281  69.9989 263.7163 0002897 264.4910  95.5918 14.98322555 52517,6950.216,96.107,574.094,570.067,0.0
55281.0,STARLINK-5298,PAYLOAD,2023-12-29 21:15:14,14.98322977,0.000289,69.9989,263.548,264.586,95.4969,0.00018893,2.162e-05,0.0,0 STARLINK-5298,1 55281U 23010N   23363.88558278  .00002162  00000-0  18893-3 0  9998,2 55281  69.9989 263.5480 0002890 264.5860  95.4969 14.98322977 52822,6950.215,96.107,574.088,570.071,0.0
55281.0,STARLINK-5298,PAYLOAD,2023-12-30 03:39:46,14.98328548,0.000284,69.9989,262.8748,264.2813,95.8022,0.00025126,2.906e-05,0.0,0 STARLINK-5298,1 55281U 23010N   23364.15261988  .00002906  00000-0  25126-3 0  9991,2 55281  69.9989 262.8748 0002840 264.2813  95.8022 14.98328548 52869,6950.197,96.107,574.036,570.089,0.0
55281.0,STARLINK-5298,PAYLOAD,2023-12-30 19:41:07,14.98330348,0.0002628,69.9992,261.191,264.0041,96.0818,0.00010158,1.119e-05,0.0,0 STARLINK-5298,1 55281U 23010N   23364.82022364  .00001119  00000-0  10158-3 0  9992,2 55281  69.9992 261.1910 0002628 264.0041  96.0818 14.98330348 52666,6950.192,96.107,573.883,570.23,0.0
55281.0,STARLINK-5298,PAYLOAD,2023-12-30 22:53:23,14.9832991,0.0002628,69.9991,260.8543,263.9287,96.1572,8.9287e-05,9.73e-06,0.0,0 STARLINK-5298,1 55281U 23010N   23364.95374360  .00000973  00000-0  89287-4 0  9999,2 55281  69.9991 260.8543 0002628 263.9287  96.1572 14.98329910 52989,6950.193,96.107,573.885,570.232,0.0
55281.0,STARLINK-5298,PAYLOAD,2023-12-31 19:43:08,14.98327275,0.0002416,69.9995,258.6663,255.6096,104.4794,1.7565e-05,1.17e-06,0.0,0 STARLINK-5298,1 55281U 23010N   23365.82162658  .00000117  00000-0  17565-4 0  9991,2 55281  69.9995 258.6663 0002416 255.6096 104.4794 14.98327275 52815,6950.201,96.107,573.745,570.387,0.0
55281.0,STARLINK-5298,PAYLOAD,2023-12-31 21:19:16,14.98325983,0.0002446,69.9995,258.498,254.9543,105.1345,-3.3955e-06,-1.33e-06,0.0,0 STARLINK-5298,1 55281U 23010N   23365.88838745 -.00000133  00000-0 -33955-5 0  9996,2 55281  69.9995 258.4980 0002446 254.9543 105.1345 14.98325983 53126,6950.205,96.107,573.77,570.37,0.0
55281.0,STARLINK-5298,PAYLOAD,2024-01-01 02:07:40,14.98325714,0.0002453,69.9994,257.9932,255.6743,104.4143,-1.2239e-05,-2.39e-06,0.0,0 STARLINK-5298,1 55281U 23010N   24001.08866815 -.00000239  00000-0 -12239-4 0  9993,2 55281  69.9994 257.9932 0002453 255.6743 104.4143 14.98325714 53157,6950.206,96.107,573.776,570.366,0.0
55281.0,STARLINK-5298,PAYLOAD,2024-01-01 19:45:08,14.98333807,0.0002856,69.9986,256.141,265.6971,94.3862,0.0001014,1.117e-05,0.0,0 STARLINK-5298,1 55281U 23010N   24001.82301973  .00001117  00000-0  10140-3 0  9996,2 55281  69.9986 256.1410 0002856 265.6971  94.3862 14.98333807 52966,6950.181,96.107,574.031,570.061,0.0
55281.0,STARLINK-5298,PAYLOAD,2024-01-01 22:57:24,14.98335678,0.0002763,69.999,255.8044,262.6905,97.394,9.1768e-05,1.002e-05,0.0,0 STARLINK-5298,1 55281U 23010N   24001.95653841  .00001002  00000-0  91768-4 0  9993,2 55281  69.9990 255.8044 0002763 262.6905  97.3940 14.98335678 53285,6950.175,96.107,573.961,570.12,0.0
55281.0,STARLINK-5298,PAYLOAD,2024-01-02 02:09:40,14.98339342,0.0002915,69.9983,255.467,268.1978,91.8848,0.00015072,1.706e-05,0.0,0 STARLINK-5298,1 55281U 23010N   24002.09005436  .00001706  00000-0  15072-3 0  9994,2 55281  69.9983 255.4670 0002915 268.1978  91.8848 14.98339342 53309,6950.164,96.106,574.055,570.003,0.0
55281.0,STARLINK-5298,PAYLOAD,2024-01-02 19:47:09,14.98329994,0.0003042,69.9981,253.6161,271.6683,88.4127,0.00010608,1.173e-05,0.0,0 STARLINK-5298,1 55281U 23010N   24002.82442071  .00001173  00000-0  10608-3 0  9993,2 55281  69.9981 253.6161 0003042 271.6683  88.4127 14.98329994 53119,6950.193,96.107,574.172,569.944,0.0
55281.0,STARLINK-5298,PAYLOAD,2024-01-02 21:23:17,14.98331476,0.0002964,69.998,253.4475,269.125,90.9569,0.00011551,1.286e-05,0.0,0 STARLINK-5298,1 55281U 23010N   24002.89117921  .00001286  00000-0  11551-3 0  9996,2 55281  69.9980 253.4475 0002964 269.1250  90.9569 14.98331476 53428,6950.188,96.107,574.113,569.993,0.0
55281.0,STARLINK-5298,PAYLOAD,2024-01-03 02:11:42,14.98331406,0.0002724,69.9984,252.9426,265.276,94.8088,0.00012029,1.343e-05,0.0,0 STARLINK-5298,1 55281U 23010N   24003.09145893  .00001343  00000-0  12029-3 0  9993,2 55281  69.9984 252.9426 0002724 265.2760  94.8088 14.98331406 53454,6950.189,96.107,573.947,570.16,0.0
55281.0,STARLINK-5298,PAYLOAD,2024-01-03 19:49:10,14.98331828,0.0002797,69.9982,251.0906,268.2195,91.8643,-4.1585e-05,-5.89e-06,0.0,0 STARLINK-5298,1 55281U 23010N   24003.82582143 -.00000589  00000-0 -41585-4 0  9990,2 55281  69.9982 251.0906 0002797 268.2195  91.8643 14.98331828 53261,6950.187,96.107,573.996,570.108,0.0
55281.0,STARLINK-5298,PAYLOAD,2024-01-03 21:25:19,14.98331093,0.0002768,69.998,250.922,267.3777,92.7065,-3.0596e-05,-4.58e-06,0.0,0 STARLINK-5298,1 55281U 23010N   24003.89258168 -.00000458  00000-0 -30596-4 0  9999,2 55281  69.9980 250.9220 0002768 267.3777  92.7065 14.98331093 53576,6950.19,96.107,573.978,570.131,0.0
55281.0,STARLINK-5298,PAYLOAD,2024-01-04 02:13:43,14.98333958,0.0002812,69.998,250.4175,269.2805,90.8032,-1.5865e-05,-2.82e-06,0.0,0 STARLINK-5298,1 55281U 23010N   24004.09285908 -.00000282  00000-0 -15865-4 0  9991,2 55281  69.9980 250.4175 0002812 269.2805  90.8032 14.98333958 53602,6950.181,96.107,574.0,570.091,0.0
55281.0,STARLINK-5298,PAYLOAD,2024-01-04 19:51:11,14.98334184,0.0002797,69.9979,248.5662,268.3233,91.7606,5.2836e-05,5.38e-06,0.0,0 STARLINK-5298,1 55281U 23010N   24004.82721567  .00000538  00000-0  52836-4 0  9999,2 55281  69.9979 248.5662 0002797 268.3233  91.7606 14.98334184 53414,6950.18,96.107,573.989,570.101,0.0
55281.0,STARLINK-5298,PAYLOAD,2024-01-04 21:27:19,14.98333663,0.000281,69.9978,248.3978,267.9768,92.1069,4.4237e-05,4.35e-06,0.0,0 STARLINK-5298,1 55281U 23010N   24004.89397604  .00000435  00000-0  44237-4 0  9999,2 55281  69.9978 248.3978 0002810 267.9768  92.1069 14.98333663 53728,6950.182,96.107,574.0,570.094,0.0
55281.0,STARLINK-5298,PAYLOAD,2024-01-05 02:15:43,14.98335947,0.0002785,69.9978,247.8932,267.398,92.686,6.9494e-05,7.36e-06,0.0,0 STARLINK-5298,1 55281U 23010N   24005.09425340  .00000736  00000-0  69494-4 0  9997,2 55281  69.9978 247.8932 0002785 267.3980  92.6860 14.98335947 53757,6950.175,96.107,573.975,570.104,0.0
55281.0,STARLINK-5298,PAYLOAD,2024-01-05 18:17:04,14.98328135,0.0002697,69.9979,246.21,264.9561,95.1291,4.5307e-05,4.48e-06,0.0,0 STARLINK-5298,1 55281U 23010N   24005.76185883  .00000448  00000-0  45307-4 0  9993,2 55281  69.9979 246.2100 0002697 264.9561  95.1291 14.98328135 53553,6950.199,96.107,573.938,570.189,0.0
55281.0,STARLINK-5298,PAYLOAD,2024-01-05 21:29:20,14.98328422,0.0002687,69.998,245.8731,266.676,93.4091,4.3957e-05,4.32e-06,0.0,0 STARLINK-5298,1 55281U 23010N   24005.89537895  .00000432  00000-0  43957-4 0  9993,2 55281  69.9980 245.8731 0002687 266.6760  93.4091 14.98328422 53872,6950.198,96.107,573.93,570.195,0.0
